[{"OBJECT_NAME":"SL-14 R/B","OBJECT_ID":"1986-006B","EPOCH":"2026-03-05T14:48:30.348288","MEAN_MOTION":14.86808748,"ECCENTRICITY":0.00751313,"INCLINATION":82.5233,"RA_OF_ASC_NODE":263.5714,"ARG_OF_PERICENTER":286.5895,"MEAN_ANOMALY":72.708,"EPHEMERIS_TYPE":0,"CLASSIFICATION_TYPE":"U","NORAD_CAT_ID":16496,"ELEMENT_SET_NO":999,"REV_AT_EPOCH":14860,"BSTAR":8.773461e-5,"MEAN_MOTION_DOT":8.48e-6,"MEAN_MOTION_DDOT":0},{"OBJECT_NAME":"COSMOS 1743","OBJECT_ID":"1986-034A","EPOCH":"2026-03-05T12:46:50.165184","MEAN_MOTION":15.58209608,"ECCENTRICITY":0.00019701,"INCLINATION":82.5294,"RA_OF_ASC_NODE":78.1932,"ARG_OF_PERICENTER":325.3813,"MEAN_ANOMALY":34.7314,"EPHEMERIS_TYPE":0,"CLASSIFICATION_TYPE":"U","NORAD_CAT_ID":16719,"ELEMENT_SET_NO":999,"REV_AT_EPOCH":17960,"BSTAR":0.00053858263,"MEAN_MOTION_DOT":0.00040818,"MEAN_MOTION_DDOT":0},{"OBJECT_NAME":"SL-14 R/B","OBJECT_ID":"1986-046B","EPOCH":"2026-03-05T13:32:05.540928","MEAN_MOTION":14.85585893,"ECCENTRICITY":0.00217419,"INCLINATION":82.4782,"RA_OF_ASC_NODE":84.0813,"ARG_OF_PERICENTER":239.7797,"MEAN_ANOMALY":120.1266,"EPHEMERIS_TYPE":0,"CLASSIFICATION_TYPE":"U","NORAD_CAT_ID":16792,"ELEMENT_SET_NO":999,"REV_AT_EPOCH":12579,"BSTAR":7.1558644e-5,"MEAN_MOTION_DOT":6.45e-6,"MEAN_MOTION_DDOT":0},{"OBJECT_NAME":"SL-14 R/B","OBJECT_ID":"1986-055B","EPOCH":"2026-03-05T15:30:48.102912","MEAN_MOTION":14.85638723,"ECCENTRICITY":0.00185317,"INCLINATION":82.5209,"RA_OF_ASC_NODE":130.4745,"ARG_OF_PERICENTER":350.2918,"MEAN_ANOMALY":174.4973,"EPHEMERIS_TYPE":0,"CLASSIFICATION_TYPE":"U","NORAD_CAT_ID":16882,"ELEMENT_SET_NO":999,"REV_AT_EPOCH":11876,"BSTAR":7.0998654e-5,"MEAN_MOTION_DOT":6.41e-6,"MEAN_MOTION_DDOT":0},{"OBJECT_NAME":"AJISAI (EGS)","OBJECT_ID":"1986-061A","EPOCH":"2026-03-05T14:58:04.155744","MEAN_MOTION":12.44515598,"ECCENTRICITY":0.00112559,"INCLINATION":50.008,"RA_OF_ASC_NODE":105.8513,"ARG_OF_PERICENTER":276.5759,"MEAN_ANOMALY":169.8789,"EPHEMERIS_TYPE":0,"CLASSIFICATION_TYPE":"U","NORAD_CAT_ID":16908,"ELEMENT_SET_NO":999,"REV_AT_EPOCH":46749,"BSTAR":0.00014749605,"MEAN_MOTION_DOT":-7.6e-7,"MEAN_MOTION_DDOT":0},{"OBJECT_NAME":"COSMOS 1812","OBJECT_ID":"1987-003A","EPOCH":"2026-03-05T13:58:42.127392","MEAN_MOTION":16.38269848,"ECCENTRICITY":0.00101187,"INCLINATION":82.4648,"RA_OF_ASC_NODE":200.2475,"ARG_OF_PERICENTER":278.175,"MEAN_ANOMALY":81.84,"EPHEMERIS_TYPE":0,"CLASSIFICATION_TYPE":"U","NORAD_CAT_ID":17295,"ELEMENT_SET_NO":999,"REV_AT_EPOCH":14382,"BSTAR":0.00050898677,"MEAN_MOTION_DOT":0.05225315,"MEAN_MOTION_DDOT":-1.256122e-6},{"OBJECT_NAME":"SL-14 R/B","OBJECT_ID":"1987-024B","EPOCH":"2026-03-05T14:22:21.549792","MEAN_MOTION":14.86127704,"ECCENTRICITY":0.00166795,"INCLINATION":82.525,"RA_OF_ASC_NODE":96.6097,"ARG_OF_PERICENTER":274.7491,"MEAN_ANOMALY":85.182,"EPHEMERIS_TYPE":0,"CLASSIFICATION_TYPE":"U","NORAD_CAT_ID":17567,"ELEMENT_SET_NO":999,"REV_AT_EPOCH":8752,"BSTAR":6.7259613e-5,"MEAN_MOTION_DOT":6.15e-6,"MEAN_MOTION_DDOT":0},{"OBJECT_NAME":"COSMOS 1833","OBJECT_ID":"1987-027A","EPOCH":"2026-03-05T04:30:57.233088","MEAN_MOTION":14.13055825,"ECCENTRICITY":0.00244789,"INCLINATION":70.9232,"RA_OF_ASC_NODE":335.4791,"ARG_OF_PERICENTER":220.7927,"MEAN_ANOMALY":139.1363,"EPHEMERIS_TYPE":0,"CLASSIFICATION_TYPE":"U","NORAD_CAT_ID":17589,"ELEMENT_SET_NO":999,"REV_AT_EPOCH":968,"BSTAR":-4.4564818e-5,"MEAN_MOTION_DOT":-1.32e-6,"MEAN_MOTION_DDOT":0},{"OBJECT_NAME":"SL-16 R/B","OBJECT_ID":"1987-027B","EPOCH":"2026-03-05T00:48:32.397120","MEAN_MOTION":14.17165983,"ECCENTRICITY":0.00036285,"INCLINATION":71.0015,"RA_OF_ASC_NODE":286.3071,"ARG_OF_PERICENTER":152.8419,"MEAN_ANOMALY":207.2895,"EPHEMERIS_TYPE":0,"CLASSIFICATION_TYPE":"U","NORAD_CAT_ID":17590,"ELEMENT_SET_NO":999,"REV_AT_EPOCH":1468,"BSTAR":-5.9456157e-5,"MEAN_MOTION_DOT":-1.68e-6,"MEAN_MOTION_DDOT":0},{"OBJECT_NAME":"SL-14 R/B","OBJECT_ID":"1987-038B","EPOCH":"2026-03-05T14:12:05.415840","MEAN_MOTION":14.85365228,"ECCENTRICITY":0.00193299,"INCLINATION":82.5008,"RA_OF_ASC_NODE":300.6684,"ARG_OF_PERICENTER":173.7146,"MEAN_ANOMALY":186.4317,"EPHEMERIS_TYPE":0,"CLASSIFICATION_TYPE":"U","NORAD_CAT_ID":17912,"ELEMENT_SET_NO":999,"REV_AT_EPOCH":7862,"BSTAR":6.7626705e-5,"MEAN_MOTION_DOT":6.08e-6,"MEAN_MOTION_DDOT":0},{"OBJECT_NAME":"COSMOS 1844","OBJECT_ID":"1987-041A","EPOCH":"2026-03-05T08:52:08.438304","MEAN_MOTION":14.14553146,"ECCENTRICITY":0.00297628,"INCLINATION":70.8996,"RA_OF_ASC_NODE":43.2872,"ARG_OF_PERICENTER":24.3038,"MEAN_ANOMALY":335.948,"EPHEMERIS_TYPE":0,"CLASSIFICATION_TYPE":"U","NORAD_CAT_ID":17973,"ELEMENT_SET_NO":999,"REV_AT_EPOCH":297,"BSTAR":-2.28089e-5,"MEAN_MOTION_DOT":-9.2e-7,"MEAN_MOTION_DDOT":0},{"OBJECT_NAME":"SL-14 R/B","OBJECT_ID":"1987-055B","EPOCH":"2026-03-05T12:02:55.930272","MEAN_MOTION":14.85623784,"ECCENTRICITY":0.0021508,"INCLINATION":82.5029,"RA_OF_ASC_NODE":352.9768,"ARG_OF_PERICENTER":31.2603,"MEAN_ANOMALY":328.9887,"EPHEMERIS_TYPE":0,"CLASSIFICATION_TYPE":"U","NORAD_CAT_ID":18153,"ELEMENT_SET_NO":999,"REV_AT_EPOCH":6931,"BSTAR":9.1607785e-5,"MEAN_MOTION_DOT":8.2e-6,"MEAN_MOTION_DDOT":0},{"OBJECT_NAME":"COSMOS 1867","OBJECT_ID":"1987-060A","EPOCH":"2026-03-05T02:38:11.367456","MEAN_MOTION":14.31502252,"ECCENTRICITY":0.00144182,"INCLINATION":65.0117,"RA_OF_ASC_NODE":319.5309,"ARG_OF_PERICENTER":278.3689,"MEAN_ANOMALY":81.5761,"EPHEMERIS_TYPE":0,"CLASSIFICATION_TYPE":"U","NORAD_CAT_ID":18187,"ELEMENT_SET_NO":999,"REV_AT_EPOCH":1928,"BSTAR":4.1240629e-5,"MEAN_MOTION_DOT":1.0e-7,"MEAN_MOTION_DDOT":0},{"OBJECT_NAME":"SL-14 R/B","OBJECT_ID":"1988-001B","EPOCH":"2026-03-05T15:09:43.806528","MEAN_MOTION":14.85522157,"ECCENTRICITY":0.00166681,"INCLINATION":82.5146,"RA_OF_ASC_NODE":199.1758,"ARG_OF_PERICENTER":250.208,"MEAN_ANOMALY":109.7339,"EPHEMERIS_TYPE":0,"CLASSIFICATION_TYPE":"U","NORAD_CAT_ID":18749,"ELEMENT_SET_NO":999,"REV_AT_EPOCH":4142,"BSTAR":9.5574727e-5,"MEAN_MOTION_DOT":8.51e-6,"MEAN_MOTION_DDOT":0},{"OBJECT_NAME":"COSMOS 1933","OBJECT_ID":"1988-020A","EPOCH":"2026-03-05T13:42:35.584416","MEAN_MOTION":15.17938823,"ECCENTRICITY":0.0003489,"INCLINATION":82.5096,"RA_OF_ASC_NODE":254.9878,"ARG_OF_PERICENTER":198.1021,"MEAN_ANOMALY":162.0089,"EPHEMERIS_TYPE":0,"CLASSIFICATION_TYPE":"U","NORAD_CAT_ID":18958,"ELEMENT_SET_NO":999,"REV_AT_EPOCH":4960,"BSTAR":0.00025568662,"MEAN_MOTION_DOT":5.218e-5,"MEAN_MOTION_DDOT":0},{"OBJECT_NAME":"SL-3 R/B","OBJECT_ID":"1988-032B","EPOCH":"2026-03-05T14:02:10.666752","MEAN_MOTION":15.19850734,"ECCENTRICITY":0.00241862,"INCLINATION":97.5187,"RA_OF_ASC_NODE":47.8501,"ARG_OF_PERICENTER":246.8551,"MEAN_ANOMALY":113.0135,"EPHEMERIS_TYPE":0,"CLASSIFICATION_TYPE":"U","NORAD_CAT_ID":19046,"ELEMENT_SET_NO":999,"REV_AT_EPOCH":5148,"BSTAR":0.00032189217,"MEAN_MOTION_DOT":6.886e-5,"MEAN_MOTION_DDOT":0},{"OBJECT_NAME":"SL-16 R/B","OBJECT_ID":"1988-039B","EPOCH":"2026-03-05T11:17:48.077376","MEAN_MOTION":14.19615722,"ECCENTRICITY":0.00225143,"INCLINATION":71.013,"RA_OF_ASC_NODE":77.4694,"ARG_OF_PERICENTER":340.5401,"MEAN_ANOMALY":19.4862,"EPHEMERIS_TYPE":0,"CLASSIFICATION_TYPE":"U","NORAD_CAT_ID":19120,"ELEMENT_SET_NO":999,"REV_AT_EPOCH":95778,"BSTAR":-1.2084719e-5,"MEAN_MOTION_DOT":-7.4e-7,"MEAN_MOTION_DDOT":0}]
